{"type": "FeatureCollection", "features": [ {"type": "Feature", "properties": {"norad_id": 31714, "name": "FENGYUN 1C DEB", "group": "fengyun-1c-debris", "lat": -32.16860344803697, "lon": -106.24641414173936, "alt_km": 598.0917305210924, "timestamp": "2025-12-13T16:48:32.994088+00:00", "meta": {"OBJECT_NAME": "FENGYUN 1C DEB", "OBJECT_ID": "1999-025CDM", "EPOCH": "2025-12-11T16:40:10.720128", "MEAN_MOTION": 14.87859927, "ECCENTRICITY": 0.001878, "INCLINATION": 99.0303, "RA_OF_ASC_NODE": 245.7312, "ARG_OF_PERICENTER": 307.0498, "MEAN_ANOMALY": 81.919, "EPHEMERIS_TYPE": 0, "CLASSIFICATION_TYPE": "U", "NORAD_CAT_ID": 31714, "ELEMENT_SET_NO": 999, "REV_AT_EPOCH": 96034, "BSTAR": 0.0080419114, "MEAN_MOTION_DOT": 0.00074496, "MEAN_MOTION_DDOT": 0}, "tle": {"line1": "1 31714U 99025CDM 25345.69456852  .00074496  00000+0  80419-2 0  9998", "line2": "2 31714  99.0303 245.7312 0018780 307.0498  81.9190 14.87859927960341"}}, "geometry": {"type": "Point", "coordinates": [-106.24641414173936, -32.16860344803697]}}, {"type": "Feature", "properties": {"norad_id": 31715, "name": "FENGYUN 1C DEB", "group": "fengyun-1c-debris", "lat": -78.2865755654845, "lon": -55.544405409090736, "alt_km": 835.4326796863133, "timestamp": "2025-12-13T16:48:32.994100+00:00", "meta": {"OBJECT_NAME": "FENGYUN 1C DEB", "OBJECT_ID": "1999-025CDN", "EPOCH": "2025-12-10T06:35:10.683744", "MEAN_MOTION": 14.52125972, "ECCENTRICITY": 0.0187101, "INCLINATION": 99.2936, "RA_OF_ASC_NODE": 172.8301, "ARG_OF_PERICENTER": 126.8068, "MEAN_ANOMALY": 235.0454, "EPHEMERIS_TYPE": 0, "CLASSIFICATION_TYPE": "U", "NORAD_CAT_ID": 31715, "ELEMENT_SET_NO": 999, "REV_AT_EPOCH": 61681, "BSTAR": 0.0013897, "MEAN_MOTION_DOT": 7.024e-05, "MEAN_MOTION_DDOT": 0}, "tle": {"line1": "1 31715U 99025CDN 25344.27442921  .00007024  00000+0  13897-2 0  9993", "line2": "2 31715  99.2936 172.8301 0187101 126.8068 235.0454 14.52125972616811"}}, "geometry": {"type": "Point", "coordinates": [-55.544405409090736, -78.2865755654845]}}, {"type": "Feature", "properties": {"norad_id": 31716, "name": "FENGYUN 1C DEB", "group": "fengyun-1c-debris", "lat": 35.081708802872534, "lon": -119.44834249848908, "alt_km": 820.2470709310264, "timestamp": "2025-12-13T16:48:32.994112+00:00", "meta": {"OBJECT_NAME": "FENGYUN 1C DEB", "OBJECT_ID": "1999-025CDP", "EPOCH": "2025-12-12T05:25:17.382432", "MEAN_MOTION": 14.03603184, "ECCENTRICITY": 0.01313774, "INCLINATION": 98.5574, "RA_OF_ASC_NODE": 245.2339, "ARG_OF_PERICENTER": 92.4221, "MEAN_ANOMALY": 57.9842, "EPHEMERIS_TYPE": 0, "CLASSIFICATION_TYPE": "U", "NORAD_CAT_ID": 31716, "ELEMENT_SET_NO": 999, "REV_AT_EPOCH": 94112, "BSTAR": 0.0019696677, "MEAN_MOTION_DOT": 3.299e-05, "MEAN_MOTION_DDOT": 0}, "tle": {"line1": "1 31716U 99025CDP 25346.22589563  .00003299  00000+0  19697-2 0  9999", "line2": "2 31716  98.5574 245.2339 0131377  92.4221  57.9842 14.03603184941120"}}, "geometry": {"type": "Point", "coordinates": [-119.44834249848908, 35.081708802872534]}}, {"type": "Feature", "properties": {"norad_id": 31720, "name": "FENGYUN 1C DEB", "group": "fengyun-1c-debris", "lat": 59.42415149337387, "lon": -115.91634180784303, "alt_km": 613.6027242475639, "timestamp": "2025-12-13T16:48:32.994124+00:00", "meta": {"OBJECT_NAME": "FENGYUN 1C DEB", "OBJECT_ID": "1999-025CDT", "EPOCH": "2025-12-12T04:38:22.051392", "MEAN_MOTION": 14.71811938, "ECCENTRICITY": 0.0100039, "INCLINATION": 99.0463, "RA_OF_ASC_NODE": 258.0529, "ARG_OF_PERICENTER": 125.2845, "MEAN_ANOMALY": 235.7767, "EPHEMERIS_TYPE": 0, "CLASSIFICATION_TYPE": "U", "NORAD_CAT_ID": 31720, "ELEMENT_SET_NO": 999, "REV_AT_EPOCH": 98228, "BSTAR": 0.0013122806, "MEAN_MOTION_DOT": 8.816e-05, "MEAN_MOTION_DDOT": 0}, "tle": {"line1": "1 31720U 99025CDT 25346.19331078  .00008816  00000+0  13123-2 0  9994", "line2": "2 31720  99.0463 258.0529 0100039 125.2845 235.7767 14.71811938982286"}}, "geometry": {"type": "Point", "coordinates": [-115.91634180784303, 59.42415149337387]}}, {"type": "Feature", "properties": {"norad_id": 31721, "name": "FENGYUN 1C DEB", "group": "fengyun-1c-debris", "lat": 13.962038952421095, "lon": 149.80449291910216, "alt_km": 760.9037213657957, "timestamp": "2025-12-13T16:48:32.994134+00:00", "meta": {"OBJECT_NAME": "FENGYUN 1C DEB", "OBJECT_ID": "1999-025CDU", "EPOCH": "2025-12-12T05:09:26.121024", "MEAN_MOTION": 13.73777058, "ECCENTRICITY": 0.03173857, "INCLINATION": 99.7812, "RA_OF_ASC_NODE": 325.8252, "ARG_OF_PERICENTER": 184.8643, "MEAN_ANOMALY": 198.956, "EPHEMERIS_TYPE": 0, "CLASSIFICATION_TYPE": "U", "NORAD_CAT_ID": 31721, "ELEMENT_SET_NO": 999, "REV_AT_EPOCH": 67379, "BSTAR": 0.00051189281, "MEAN_MOTION_DOT": 6.42e-06, "MEAN_MOTION_DDOT": 0}, "tle": {"line1": "1 31721U 99025CDU 25346.21488566  .00000642  00000+0  51189-3 0  9997", "line2": "2 31721  99.7812 325.8252 0317385 184.8643 198.9560 13.73777058673798"}}, "geometry": {"type": "Point", "coordinates": [149.80449291910216, 13.962038952421095]}}, {"type": "Feature", "properties": {"norad_id": 31724, "name": "FENGYUN 1C DEB", "group": "fengyun-1c-debris", "lat": -63.684606783016, "lon": 157.40360456333602, "alt_km": 628.4309645733592, "timestamp": "2025-12-13T16:48:32.994144+00:00", "meta": {"OBJECT_NAME": "FENGYUN 1C DEB", "OBJECT_ID": "1999-025CDX", "EPOCH": "2025-12-12T18:08:00.319200", "MEAN_MOTION": 14.49091574, "ECCENTRICITY": 0.01517036, "INCLINATION": 97.8558, "RA_OF_ASC_NODE": 352.7338, "ARG_OF_PERICENTER": 242.0652, "MEAN_ANOMALY": 116.5116, "EPHEMERIS_TYPE": 0, "CLASSIFICATION_TYPE": "U", "NORAD_CAT_ID": 31724, "ELEMENT_SET_NO": 999, "REV_AT_EPOCH": 64492, "BSTAR": 0.0030997985, "MEAN_MOTION_DOT": 0.00013613, "MEAN_MOTION_DDOT": 0}, "tle": {"line1": "1 31724U 99025CDX 25346.75555925  .00013613  00000+0  30998-2 0  9999", "line2": "2 31724  97.8558 352.7338 0151703 242.0652 116.5116 14.49091574644920"}}, "geometry": {"type": "Point", "coordinates": [157.40360456333602, -63.684606783016]}}, {"type": "Feature", "properties": {"norad_id": 31725, "name": "FENGYUN 1C DEB", "group": "fengyun-1c-debris", "lat": -17.317382327600725, "lon": 21.57155508514198, "alt_km": 1710.7931038557008, "timestamp": "2025-12-13T16:48:32.994154+00:00", "meta": {"OBJECT_NAME": "FENGYUN 1C DEB", "OBJECT_ID": "1999-025CDY", "EPOCH": "2025-12-09T19:45:31.507776", "MEAN_MOTION": 12.79173156, "ECCENTRICITY": 0.06944368, "INCLINATION": 99.1805, "RA_OF_ASC_NODE": 201.28, "ARG_OF_PERICENTER": 341.3906, "MEAN_ANOMALY": 16.2905, "EPHEMERIS_TYPE": 0, "CLASSIFICATION_TYPE": "U", "NORAD_CAT_ID": 31725, "ELEMENT_SET_NO": 999, "REV_AT_EPOCH": 86444, "BSTAR": 0.004491389, "MEAN_MOTION_DOT": 2.769e-05, "MEAN_MOTION_DDOT": 0}, "tle": {"line1": "1 31725U 99025CDY 25343.82328134  .00002769  00000+0  44914-2 0  9998", "line2": "2 31725  99.1805 201.2800 0694436 341.3906  16.2905 12.79173156864444"}}, "geometry": {"type": "Point", "coordinates": [21.57155508514198, -17.317382327600725]}}, {"type": "Feature", "properties": {"norad_id": 31727, "name": "FENGYUN 1C DEB", "group": "fengyun-1c-debris", "lat": -31.06122184835584, "lon": -85.61941786732136, "alt_km": 787.8133689082933, "timestamp": "2025-12-13T16:48:32.994164+00:00", "meta": {"OBJECT_NAME": "FENGYUN 1C DEB", "OBJECT_ID": "1999-025CEA", "EPOCH": "2025-12-10T18:23:22.228800", "MEAN_MOTION": 14.36981321, "ECCENTRICITY": 0.00320345, "INCLINATION": 98.8642, "RA_OF_ASC_NODE": 96.7532, "ARG_OF_PERICENTER": 346.3901, "MEAN_ANOMALY": 174.8893, "EPHEMERIS_TYPE": 0, "CLASSIFICATION_TYPE": "U", "NORAD_CAT_ID": 31727, "ELEMENT_SET_NO": 999, "REV_AT_EPOCH": 71640, "BSTAR": 0.0030305659, "MEAN_MOTION_DOT": 8.997e-05, "MEAN_MOTION_DDOT": 0}, "tle": {"line1": "1 31727U 99025CEA 25344.76622950  .00008997  00000+0  30306-2 0  9996", "line2": "2 31727  98.8642  96.7532 0032034 346.3901 174.8893 14.36981321716405"}}, "geometry": {"type": "Point", "coordinates": [-85.61941786732136, -31.06122184835584]}}, {"type": "Feature", "properties": {"norad_id": 31731, "name": "FENGYUN 1C DEB", "group": "fengyun-1c-debris", "lat": 37.628153839662744, "lon": 28.72724972940328, "alt_km": 750.4584017408652, "timestamp": "2025-12-13T16:48:32.994175+00:00", "meta": {"OBJECT_NAME": "FENGYUN 1C DEB", "OBJECT_ID": "1999-025CEE", "EPOCH": "2025-11-27T02:07:07.827456", "MEAN_MOTION": 14.40063792, "ECCENTRICITY": 0.00116613, "INCLINATION": 99.3084, "RA_OF_ASC_NODE": 17.9462, "ARG_OF_PERICENTER": 144.9647, "MEAN_ANOMALY": 215.2308, "EPHEMERIS_TYPE": 0, "CLASSIFICATION_TYPE": "U", "NORAD_CAT_ID": 31731, "ELEMENT_SET_NO": 999, "REV_AT_EPOCH": 95605, "BSTAR": 0.0018623031, "MEAN_MOTION_DOT": 5.831e-05, "MEAN_MOTION_DDOT": 0}, "tle": {"line1": "1 31731U 99025CEE 25331.08828504  .00005831  00000+0  18623-2 0  9997", "line2": "2 31731  99.3084  17.9462 0011661 144.9647 215.2308 14.40063792956051"}}, "geometry": {"type": "Point", "coordinates": [28.72724972940328, 37.628153839662744]}}, {"type": "Feature", "properties": {"norad_id": 31732, "name": "FENGYUN 1C DEB", "group": "fengyun-1c-debris", "lat": -44.0198811446142, "lon": -165.97302853336006, "alt_km": 831.1184452467205, "timestamp": "2025-12-13T16:48:32.994185+00:00", "meta": {"OBJECT_NAME": "FENGYUN 1C DEB", "OBJECT_ID": "1999-025CEF", "EPOCH": "2025-12-11T21:14:14.146080", "MEAN_MOTION": 14.12252116, "ECCENTRICITY": 0.0039548, "INCLINATION": 98.5728, "RA_OF_ASC_NODE": 20.6725, "ARG_OF_PERICENTER": 247.8897, "MEAN_ANOMALY": 111.8074, "EPHEMERIS_TYPE": 0, "CLASSIFICATION_TYPE": "U", "NORAD_CAT_ID": 31732, "ELEMENT_SET_NO": 999, "REV_AT_EPOCH": 64318, "BSTAR": 0.00049938, "MEAN_MOTION_DOT": 8.83e-06, "MEAN_MOTION_DDOT": 0}, "tle": {"line1": "1 31732U 99025CEF 25345.88488595  .00000883  00000+0  49938-3 0  9999", "line2": "2 31732  98.5728  20.6725 0039548 247.8897 111.8074 14.12252116643182"}}, "geometry": {"type": "Point", "coordinates": [-165.97302853336006, -44.0198811446142]}}]}